STARLINK-1593           
1 46119U 20057C   25281.38261897  .00006424  00000+0  44949-3 0  9995
2 46119  53.0535 280.6996 0001497  95.9860 264.1300 15.06423232284369
STARLINK-1601           
1 46120U 20057D   25281.26831522  .00002271  00000+0  17126-3 0  9995
2 46120  53.0542 280.8643 0001431  89.9042 270.2111 15.06412089284370
STARLINK-1605           
1 46123U 20057G   25281.87026139  .00162573  00000+0  35871-2 0  9993
2 46123  53.0497 227.3514 0012147  64.8325 295.3938 15.42747656285172
STARLINK-1614           
1 46124U 20057H   25281.86459970  .00168814  00000+0  36633-2 0  9997
2 46124  53.0499 227.2366 0012553  64.8189 295.4116 15.43211775283905
STARLINK-1621           
1 46127U 20057L   25281.25093654  .00135641  00000+0  38163-2 0  9998
2 46127  53.0535 258.1242 0002788 105.8140 254.3169 15.35507392283408
STARLINK-1622           
1 46128U 20057M   25281.88140530  .00105822  00000+0  36670-2 0  9993
2 46128  53.0345 226.9027 0010612  38.5263 321.6491 15.28955176283905
STARLINK-1623           
1 46129U 20057N   25281.85072583  .00006282  00000+0  44036-3 0  9999
2 46129  53.0543 238.2517 0001446  87.5011 272.6143 15.06388623283740
STARLINK-1624           
1 46130U 20057P   25281.28674905  .00004866  00000+0  34514-3 0  9990
2 46130  53.0534 240.7806 0001387  90.0787 270.0361 15.06418128284901
STARLINK-1625           
1 46131U 20057Q   25281.23330591  .00001087  00000+0  91809-4 0  9999
2 46131  53.0546 261.0205 0001609  87.7858 272.3315 15.06410871284623
STARLINK-1643           
1 46136U 20057V   25281.14542745  .00143000  00000+0  14336-2 0  9990
2 46136  53.0479 243.1308 0010121  28.1895 331.9665 15.64523920283619
STARLINK-1596           
1 46141U 20057AA  25281.86459832  .00087574  00000+0  35035-2 0  9991
2 46141  53.0473 222.5391 0008951  79.0850 281.1153 15.24321065283964
STARLINK-1597           
1 46142U 20057AB  25281.37891854  .00004575  00000+0  32586-3 0  9991
2 46142  53.0547 280.3674 0001635  82.9237 277.1938 15.06395651283101
STARLINK-1606           
1 46144U 20057AD  25281.34387641  .00000415  00000+0  46752-4 0  9994
2 46144  53.0536 260.5269 0001413  91.5057 268.6094 15.06400247271632
STARLINK-1608           
1 46146U 20057AF  25281.38995571  .00001613  00000+0  12713-3 0  9997
2 46146  53.0550 280.3205 0001384  90.6823 269.4325 15.06410844283114
STARLINK-1629           
1 46150U 20057AK  25281.88173785  .00149931  00000+0  32820-2 0  9998
2 46150  53.0342 250.1307 0011569  49.1415 311.0591 15.43045308283588
STARLINK-1642           
1 46154U 20057AP  25281.25743560  .00044261  00000+0  10351-2 0  9992
2 46154  53.0518 260.3579 0012709  30.4055 329.7684 15.41657559283383
STARLINK-1667           
1 46155U 20057AQ  25281.24474272  .00098608  00000+0  34949-2 0  9996
2 46155  53.0382 230.0282 0010126  38.5976 321.5744 15.28262144285049
STARLINK-1545           
1 46156U 20057AR  25281.20750187  .00004298  00000+0  30710-3 0  9990
2 46156  53.0528 261.1396 0001297  94.8544 265.2594 15.06415616284617
STARLINK-1587           
1 46157U 20057AS  25280.93516604  .00164779  00000+0  46002-2 0  9995
2 46157  53.0537 238.9181 0003234 115.6464 244.4872 15.35613203283653
STARLINK-1595           
1 46159U 20057AU  25281.29780317  .00002042  00000+0  15587-3 0  9990
2 46159  53.0537 280.7344 0001440  91.3052 268.8102 15.06416074284350
STARLINK-1598           
1 46160U 20057AV  25281.35494729 -.00004555  00000+0 -28717-3 0  9990
2 46160  53.0531 260.4731 0002084  93.8833 266.2395 15.06390180284636
STARLINK-1612           
1 46164U 20057AZ  25281.85445255  .00229914  00000+0  67382-2 0  9995
2 46164  53.0500 224.8260 0012411  53.3500 306.8640 15.33733003285195
STARLINK-1626           
1 46167U 20057BC  25281.39731866  .00002369  00000+0  17777-3 0  9990
2 46167  53.0542 280.2833 0001543  91.9584 268.1581 15.06418828283119
STARLINK-1627           
1 46168U 20057BD  25281.84057911  .00001965  00000+0  15077-3 0  9995
2 46168  53.0544 228.3804 0001414  83.1234 276.9916 15.06393760283874
STARLINK-1628           
1 46169U 20057BE  25281.42692921  .00414977  00000+0  14747-2 0  9999
2 46169  53.0356 175.4274 0006805 156.4608 203.6728 15.87338415284534
STARLINK-1633           
1 46171U 20057BG  25281.24065846  .00015731  00000+0  10715-2 0  9998
2 46171  53.0537 260.9871 0001553  87.6075 272.5092 15.06439217284621
STARLINK-1635           
1 46172U 20057BH  25281.38810993  .00012614  00000+0  86369-3 0  9991
2 46172  53.0535 260.3236 0001546 100.4183 259.6981 15.06422894284643
STARLINK-1640           
1 46173U 20057BJ  25281.30149297  .00000528  00000+0  54324-4 0  9994
2 46173  53.0550 280.7183 0001438  87.8462 272.2692 15.06403005283097
STARLINK-1641           
1 46174U 20057BK  25281.37520657  .00001491  00000+0  11891-3 0  9996
2 46174  53.0551 280.3844 0001300  90.3052 269.8086 15.06411207283105
STARLINK-1734           
1 46325U 20062A   25281.21891123  .00212059  00000+0  28558-2 0  9993
2 46325  53.0274 251.6877 0015274  21.0499 339.1137 15.56500332283193
STARLINK-1654           
1 46326U 20062B   25281.58349363  .00006633  00000+0  46348-3 0  9995
2 46326  53.0552 339.6916 0001508  89.3195 270.7966 15.06422916281384
STARLINK-1686           
1 46328U 20062D   25281.51896960  .00002554  00000+0  19026-3 0  9991
2 46328  53.0545 319.7417 0001663  89.3918 270.7262 15.06406378281651
STARLINK-1695           
1 46329U 20062E   25281.48580815  .00005007  00000+0  35471-3 0  9995
2 46329  53.0537 319.8896 0001207  87.5625 272.5502 15.06407816281648
STARLINK-1710           
1 46330U 20062F   25281.48353797  .00117263  00000+0  30483-2 0  9999
2 46330  53.0493 303.8477 0009240 334.2308  25.8233 15.38019200281881
STARLINK-1719           
1 46331U 20062G   25281.56669940  .00289298  00000+0  15685-1 0  9993
2 46331  53.0539 339.4266 0001181 106.9591 253.1530 15.12738021281380
STARLINK-1723           
1 46333U 20062J   25281.53556444 -.00001363  00000+0 -72598-4 0  9992
2 46333  53.0566 339.6712 0001576  94.2756 265.8414 15.06396998281376
STARLINK-1727           
1 46335U 20062L   25281.56504977  .00005630  00000+0  39643-3 0  9993
2 46335  53.0560 339.5338 0001307  95.5993 264.5145 15.06412431281383
STARLINK-1738           
1 46336U 20062M   25281.38279140  .00128873  00000+0  29741-2 0  9997
2 46336  53.0493 305.1670 0013502 344.5045  15.5544 15.41536277281844
STARLINK-1750           
1 46337U 20062N   25281.51442251  .00105323  00000+0  28937-2 0  9999
2 46337  53.0519 315.6577 0003924  17.4728 342.6408 15.36397913281712
STARLINK-1752           
1 46338U 20062P   25281.55397924 -.00000329  00000+0 -31624-5 0  9992
2 46338  53.0563 339.5838 0001454  97.5186 262.5968 15.06410148281376
STARLINK-1759           
1 46340U 20062R   25281.57905935  .00067481  00000+0  26849-2 0  9994
2 46340  53.0372 330.9117 0005257 303.9645  56.0851 15.24655732281491
STARLINK-1762           
1 46342U 20062T   25281.44709283  .00002091  00000+0  15920-3 0  9995
2 46342  53.0541 340.0621 0001561  96.6583 263.4584 15.06402624281367
STARLINK-1764           
1 46343U 20062U   25281.37521958  .00000956  00000+0  83058-4 0  9995
2 46343  53.0543 320.3819 0001328  94.3391 265.7750 15.06404468281631
STARLINK-1765           
1 46344U 20062V   25281.60742336  .00619968  00000+0  17138-1 0  9999
2 46344  53.0537 318.0961 0001325 109.6878 250.4266 15.34343150281683
STARLINK-1767           
1 46345U 20062W   25281.50386006  .00041792  00000+0  88913-3 0  9992
2 46345  53.0496 323.3612 0011718 326.6264  33.4002 15.44513335281601
STARLINK-1547           
1 46347U 20062Y   25281.39301420  .00102570  00000+0  35857-2 0  9998
2 46347  53.0502 283.8182 0006279 351.5245   8.5646 15.28718029282130
STARLINK-1553           
1 46348U 20062Z   25281.35720765  .00076267  00000+0  29928-2 0  9997
2 46348  53.0420 298.2969 0007545  11.0013 349.1147 15.25047895281942
STARLINK-1575           
1 46349U 20062AA  25281.29420957  .00130101  00000+0  35581-2 0  9991
2 46349  53.0418 280.5977 0010333 355.6179   4.4731 15.36375813282185
STARLINK-1646           
1 46351U 20062AC  25281.49685358  .00001805  00000+0  14000-3 0  9996
2 46351  53.0541 319.8349 0001320  85.2204 274.8936 15.06403862281660
STARLINK-1653           
1 46352U 20062AD  25281.41208605 -.00001154  00000+0 -58617-4 0  9997
2 46352  53.0562 320.2196 0001460  94.1954 265.9202 15.06384402281649
STARLINK-1656           
1 46353U 20062AE  25281.54291024 -.00007588  00000+0 -49107-3 0  9999
2 46353  53.0546 339.6326 0001214  63.9829 296.1284 15.06398247281371
STARLINK-1657           
1 46354U 20062AF  25281.46552772 -.00000195  00000+0  58388-5 0  9990
2 46354  53.0560 339.9855 0001549  99.9179 260.1985 15.06400140281360
STARLINK-1661           
1 46355U 20062AG  25281.57241993  .00002027  00000+0  15492-3 0  9995
2 46355  53.0556 339.4996 0001286  95.5746 264.5390 15.06407854281386
STARLINK-1665           
1 46356U 20062AH  25281.85254466  .00008267  00000+0  57298-3 0  9998
2 46356  53.0544 338.2859 0001214  95.0754 265.0373 15.06416249281424
STARLINK-1666           
1 46357U 20062AJ  25281.38259417  .00004688  00000+0  33335-3 0  9997
2 46357  53.0536 320.3512 0001385  91.5836 268.5311 15.06405353281632
STARLINK-1707           
1 46359U 20062AL  25281.38054180  .00095526  00000+0  33510-2 0  9994
2 46359  53.0389 279.6273 0007323 353.3671   6.7230 15.28638479282201
STARLINK-1713           
1 46360U 20062AM  25281.84405201  .03169404  11824-4  15182-2 0  9997
2 46360  53.0255 229.1866 0002995 167.9984 192.1126 16.20639413282957
STARLINK-1726           
1 46362U 20062AP  25281.28763764  .00129738  00000+0  36279-2 0  9990
2 46362  53.0553 280.8297 0010409 351.4135   8.6687 15.35684839282184
STARLINK-1651           
1 46366U 20062AT  25281.42736088  .00120177  00000+0  33574-2 0  9992
2 46366  53.0519 291.1705 0003378  42.3373 317.7889 15.35802879282045
